[{"OBJECT_NAME":"COSMOS 886 DEB","OBJECT_ID":"1976-126BN","EPOCH":"2026-03-04T01:32:50.178624","MEAN_MOTION":16.01515849,"ECCENTRICITY":0.0025121,"INCLINATION":65.6027,"RA_OF_ASC_NODE":312.6177,"ARG_OF_PERICENTER":190.1478,"MEAN_ANOMALY":169.9192,"EPHEMERIS_TYPE":0,"CLASSIFICATION_TYPE":"U","NORAD_CAT_ID":14501,"ELEMENT_SET_NO":999,"REV_AT_EPOCH":14977,"BSTAR":0.0074543,"MEAN_MOTION_DOT":0.03621939,"MEAN_MOTION_DDOT":0.017651},{"OBJECT_NAME":"COSMOS 1812","OBJECT_ID":"1987-003A","EPOCH":"2026-03-04T04:07:45.671232","MEAN_MOTION":16.2710439,"ECCENTRICITY":0.0008504,"INCLINATION":82.4699,"RA_OF_ASC_NODE":201.9089,"ARG_OF_PERICENTER":284.562,"MEAN_ANOMALY":75.4729,"EPHEMERIS_TYPE":0,"CLASSIFICATION_TYPE":"U","NORAD_CAT_ID":17295,"ELEMENT_SET_NO":999,"REV_AT_EPOCH":14359,"BSTAR":0.0008085,"MEAN_MOTION_DOT":0.02726729,"MEAN_MOTION_DDOT":-1.226e-6},{"OBJECT_NAME":"IRIDIUM 51","OBJECT_ID":"1998-018A","EPOCH":"2026-03-04T04:36:47.014848","MEAN_MOTION":16.00115257,"ECCENTRICITY":0.0017597,"INCLINATION":86.3521,"RA_OF_ASC_NODE":283.5142,"ARG_OF_PERICENTER":305.6931,"MEAN_ANOMALY":54.2717,"EPHEMERIS_TYPE":0,"CLASSIFICATION_TYPE":"U","NORAD_CAT_ID":25262,"ELEMENT_SET_NO":999,"REV_AT_EPOCH":48747,"BSTAR":0.00145,"MEAN_MOTION_DOT":0.00748845,"MEAN_MOTION_DDOT":0.00025724},{"OBJECT_NAME":"CZ-2D DEB","OBJECT_ID":"2005-024J","EPOCH":"2026-03-01T21:43:49.210752","MEAN_MOTION":15.92111318,"ECCENTRICITY":0.0004089,"INCLINATION":97.1482,"RA_OF_ASC_NODE":103.0739,"ARG_OF_PERICENTER":145.2826,"MEAN_ANOMALY":214.8716,"EPHEMERIS_TYPE":0,"CLASSIFICATION_TYPE":"U","NORAD_CAT_ID":31409,"ELEMENT_SET_NO":999,"REV_AT_EPOCH":11718,"BSTAR":0.00072484,"MEAN_MOTION_DOT":0.0023946,"MEAN_MOTION_DDOT":2.3346e-5},{"OBJECT_NAME":"ZIYUAN 3-01 (ZY 3-01)","OBJECT_ID":"2012-001A","EPOCH":"2026-03-04T04:27:10.776096","MEAN_MOTION":15.98013412,"ECCENTRICITY":0.0002,"INCLINATION":97.1553,"RA_OF_ASC_NODE":137.7613,"ARG_OF_PERICENTER":244.812,"MEAN_ANOMALY":115.2951,"EPHEMERIS_TYPE":0,"CLASSIFICATION_TYPE":"U","NORAD_CAT_ID":38046,"ELEMENT_SET_NO":999,"REV_AT_EPOCH":78782,"BSTAR":0.0010967,"MEAN_MOTION_DOT":0.00496142,"MEAN_MOTION_DDOT":0.00010586},{"OBJECT_NAME":"HUMSAT-D","OBJECT_ID":"2013-066T","EPOCH":"2026-03-04T00:03:07.606368","MEAN_MOTION":16.00754523,"ECCENTRICITY":0.000718,"INCLINATION":97.4828,"RA_OF_ASC_NODE":75.6058,"ARG_OF_PERICENTER":166.0311,"MEAN_ANOMALY":194.1167,"EPHEMERIS_TYPE":0,"CLASSIFICATION_TYPE":"U","NORAD_CAT_ID":39433,"ELEMENT_SET_NO":999,"REV_AT_EPOCH":67055,"BSTAR":0.0022269,"MEAN_MOTION_DOT":0.01168259,"MEAN_MOTION_DDOT":0.00071538},{"OBJECT_NAME":"H-2A DEB","OBJECT_ID":"2018-084E","EPOCH":"2026-03-04T04:15:58.135680","MEAN_MOTION":16.00583628,"ECCENTRICITY":0.0003434,"INCLINATION":98.0052,"RA_OF_ASC_NODE":279.1303,"ARG_OF_PERICENTER":296.2204,"MEAN_ANOMALY":63.8719,"EPHEMERIS_TYPE":0,"CLASSIFICATION_TYPE":"U","NORAD_CAT_ID":43675,"ELEMENT_SET_NO":999,"REV_AT_EPOCH":40224,"BSTAR":0.002874,"MEAN_MOTION_DOT":0.01477973,"MEAN_MOTION_DDOT":0.0012514},{"OBJECT_NAME":"SPACEBEE-7","OBJECT_ID":"2018-099BL","EPOCH":"2026-03-03T18:05:30.951744","MEAN_MOTION":16.0578504,"ECCENTRICITY":0.00083164,"INCLINATION":97.4393,"RA_OF_ASC_NODE":149.2076,"ARG_OF_PERICENTER":273.3337,"MEAN_ANOMALY":86.6993,"EPHEMERIS_TYPE":0,"CLASSIFICATION_TYPE":"U","NORAD_CAT_ID":43816,"ELEMENT_SET_NO":999,"REV_AT_EPOCH":39826,"BSTAR":0.0021750377,"MEAN_MOTION_DOT":0.01518015,"MEAN_MOTION_DDOT":0.001489975},{"OBJECT_NAME":"STARLINK-1112","OBJECT_ID":"2020-001M","EPOCH":"2026-03-04T01:48:29.364768","MEAN_MOTION":16.06706164,"ECCENTRICITY":0.0004849,"INCLINATION":53.0333,"RA_OF_ASC_NODE":270.1979,"ARG_OF_PERICENTER":273.9886,"MEAN_ANOMALY":86.0592,"EPHEMERIS_TYPE":0,"CLASSIFICATION_TYPE":"U","NORAD_CAT_ID":44925,"ELEMENT_SET_NO":999,"REV_AT_EPOCH":34042,"BSTAR":0.0011867,"MEAN_MOTION_DOT":0.00924546,"MEAN_MOTION_DDOT":0.00047019},{"OBJECT_NAME":"STARLINK-1298","OBJECT_ID":"2020-019BF","EPOCH":"2026-03-04T06:00:01.999296","MEAN_MOTION":15.9287028,"ECCENTRICITY":0.0007382,"INCLINATION":53.0353,"RA_OF_ASC_NODE":81.7701,"ARG_OF_PERICENTER":359.4416,"MEAN_ANOMALY":158.3194,"EPHEMERIS_TYPE":0,"CLASSIFICATION_TYPE":"U","NORAD_CAT_ID":45413,"ELEMENT_SET_NO":999,"REV_AT_EPOCH":599,"BSTAR":0.00064831,"MEAN_MOTION_DOT":0.00227856,"MEAN_MOTION_DDOT":3.0752e-5},{"OBJECT_NAME":"STARLINK-1484","OBJECT_ID":"2020-038AC","EPOCH":"2026-03-04T06:00:01.999296","MEAN_MOTION":15.98088065,"ECCENTRICITY":0.0006845,"INCLINATION":52.9984,"RA_OF_ASC_NODE":84.7281,"ARG_OF_PERICENTER":39.435,"MEAN_ANOMALY":173.3388,"EPHEMERIS_TYPE":0,"CLASSIFICATION_TYPE":"U","NORAD_CAT_ID":45756,"ELEMENT_SET_NO":999,"REV_AT_EPOCH":611,"BSTAR":0.00085035,"MEAN_MOTION_DOT":0.00398805,"MEAN_MOTION_DDOT":7.7101e-5},{"OBJECT_NAME":"STARLINK-1723","OBJECT_ID":"2020-062J","EPOCH":"2026-03-04T06:20:02.313888","MEAN_MOTION":16.20174244,"ECCENTRICITY":0.0006565,"INCLINATION":53.0366,"RA_OF_ASC_NODE":349.9125,"ARG_OF_PERICENTER":207.6323,"MEAN_ANOMALY":152.4366,"EPHEMERIS_TYPE":0,"CLASSIFICATION_TYPE":"U","NORAD_CAT_ID":46333,"ELEMENT_SET_NO":999,"REV_AT_EPOCH":30420,"BSTAR":0.0015191,"MEAN_MOTION_DOT":0.03069404,"MEAN_MOTION_DDOT":1.1801e-5},{"OBJECT_NAME":"STARLINK-1738","OBJECT_ID":"2020-062M","EPOCH":"2026-03-04T03:12:11.501280","MEAN_MOTION":16.00664043,"ECCENTRICITY":0.0005032,"INCLINATION":53.0282,"RA_OF_ASC_NODE":309.1166,"ARG_OF_PERICENTER":145.7221,"MEAN_ANOMALY":214.4134,"EPHEMERIS_TYPE":0,"CLASSIFICATION_TYPE":"U","NORAD_CAT_ID":46336,"ELEMENT_SET_NO":999,"REV_AT_EPOCH":30476,"BSTAR":0.0014483,"MEAN_MOTION_DOT":0.00786123,"MEAN_MOTION_DDOT":0.00030012},{"OBJECT_NAME":"STARLINK-1687","OBJECT_ID":"2020-070K","EPOCH":"2026-03-04T05:34:17.878368","MEAN_MOTION":16.2115119,"ECCENTRICITY":0.0008666,"INCLINATION":53.0273,"RA_OF_ASC_NODE":118.5427,"ARG_OF_PERICENTER":4.3959,"MEAN_ANOMALY":355.7154,"EPHEMERIS_TYPE":0,"CLASSIFICATION_TYPE":"U","NORAD_CAT_ID":46541,"ELEMENT_SET_NO":999,"REV_AT_EPOCH":29983,"BSTAR":0.0014124,"MEAN_MOTION_DOT":0.030934,"MEAN_MOTION_DDOT":1.1877e-5},{"OBJECT_NAME":"STARLINK-1712","OBJECT_ID":"2020-070BB","EPOCH":"2026-03-04T04:00:03.000096","MEAN_MOTION":15.95793537,"ECCENTRICITY":0.0006696,"INCLINATION":53.0301,"RA_OF_ASC_NODE":108.8053,"ARG_OF_PERICENTER":342.0275,"MEAN_ANOMALY":14.9358,"EPHEMERIS_TYPE":0,"CLASSIFICATION_TYPE":"U","NORAD_CAT_ID":46581,"ELEMENT_SET_NO":999,"REV_AT_EPOCH":596,"BSTAR":0.0013067,"MEAN_MOTION_DOT":0.0054067,"MEAN_MOTION_DDOT":0.00013169}]
