COSMOS 886 DEB          
1 14501U 76126BN  26063.06446966  .03621939  17651-1  74543-2 0  9990
2 14501  65.6027 312.6177 0025121 190.1478 169.9192 16.01515849149772
COSMOS 1812             
1 17295U 87003A   26063.17205638  .02726729 -12260-5  80850-3 0  9997
2 17295  82.4699 201.9089 0008504 284.5620  75.4729 16.27104390143596
IRIDIUM 51              
1 25262U 98018A   26063.19221082  .00748845  25724-3  14500-2 0  9996
2 25262  86.3521 283.5142 0017597 305.6931  54.2717 16.00115257487479
CZ-2D DEB               
1 31409U 05024J   26060.90543068  .00239460  23346-4  72484-3 0  9991
2 31409  97.1482 103.0739 0004089 145.2826 214.8716 15.92111318117181
ZIYUAN 3-01 (ZY 3-01)   
1 38046U 12001A   26063.18554139  .00496142  10586-3  10967-2 0  9992
2 38046  97.1553 137.7613 0002000 244.8120 115.2951 15.98013412787824
HUMSAT-D                
1 39433U 13066T   26063.00217137  .01168259  71538-3  22269-2 0  9998
2 39433  97.4828  75.6058 0007180 166.0311 194.1167 16.00754523670552
H-2A DEB                
1 43675U 18084E   26063.17775620  .01477973  12514-2  28740-2 0  9994
2 43675  98.0052 279.1303 0003434 296.2204  63.8719 16.00583628402240
SPACEBEE-7              
1 43816U 18099BL  26062.75383046  .01518015  14900-2  21750-2 0  9995
2 43816  97.4393 149.2076 0008316 273.3337  86.6993 16.05785040398269
STARLINK-1112           
1 44925U 20001M   26063.07533987  .00924546  47019-3  11867-2 0  9995
2 44925  53.0333 270.1979 0004849 273.9886  86.0592 16.06706164340426
STARLINK-1298           
1 45413U 20019BF  26063.25002314  .00227856  30752-4  64831-3 0  9999
2 45413  53.0353  81.7701 0007382 359.4416 158.3194 15.92870280  5990
STARLINK-1484           
1 45756U 20038AC  26063.25002314  .00398805  77101-4  85035-3 0  9991
2 45756  52.9984  84.7281 0006845  39.4350 173.3388 15.98088065  6114
STARLINK-1723           
1 46333U 20062J   26063.26391567  .03069404  11801-4  15191-2 0  9995
2 46333  53.0366 349.9125 0006565 207.6323 152.4366 16.20174244304209
STARLINK-1738           
1 46336U 20062M   26063.13346645  .00786123  30012-3  14483-2 0  9999
2 46336  53.0282 309.1166 0005032 145.7221 214.4134 16.00664043304761
STARLINK-1687           
1 46541U 20070K   26063.23215137  .03093400  11877-4  14124-2 0  9991
2 46541  53.0273 118.5427 0008666   4.3959 355.7154 16.21151190299834
STARLINK-1712           
1 46581U 20070BB  26063.16670139  .00540670  13169-3  13067-2 0  9997
2 46581  53.0301 108.8053 0006696 342.0275  14.9358 15.95793537  5967
